[Satellite]
VERSION=1.1
NAME=SL-14 R/B
NICKNAME=SL-14 R/B
TLE1=1 11267U 79011B   15053.81936303  .00000438  00000-0  44358-4 0  9995
TLE2=2 11267  82.5262 307.4083 0017992 156.3045 203.9005 14.88453078949695
